COMMENT,ORIGINATOR,NORAD_CAT_ID,OBJECT_NAME,OBJECT_TYPE,CLASSIFICATION_TYPE,INTLDES,EPOCH,EPOCH_MICROSECONDS,MEAN_MOTION,ECCENTRICITY,INCLINATION,RA_OF_ASC_NODE,ARG_OF_PERICENTER,MEAN_ANOMALY,EPHEMERIS_TYPE,ELEMENT_SET_NO,REV_AT_EPOCH,BSTAR,MEAN_MOTION_DOT,MEAN_MOTION_DDOT,FILE,TLE_LINE0,TLE_LINE1,TLE_LINE2,OBJECT_ID,OBJECT_NUMBER,SEMIMAJOR_AXIS,PERIOD,APOGEE,PERIGEE,DECAYED,date
GENERATED VIA SPACETRACK.ORG API,18 SPCS,46301,SPACEBEE-20,PAYLOAD,U,20061AF,2023/1/21 2:46,632736,15.31478662,0.0000471,97.4316,96.566,59.0965,301.0323,0,999,13167,0.0028211,0.0008657,0,3756590,0 SPACEBEE-20,1 46301U 20061AF  23021.11542399  .00086570  00000-0  28211-2 0  9997,2 46301  97.4316  96.5660 0000471  59.0965 301.0323 15.31478662131677,2020-061AF,46301,6849.537,94.027,471.724,471.079,1,2023/2/16
GENERATED VIA SPACETRACK.ORG API,18 SPCS,46301,SPACEBEE-20,PAYLOAD,U,20061AF,2023/1/21 16:52,514592,15.31570588,0.0000478,97.4311,97.1559,45.2664,314.8616,0,999,13176,0.0029172,0.00089816,0,3757439,0 SPACEBEE-20,1 46301U 20061AF  23021.70345503  .00089816  00000-0  29172-2 0  9993,2 46301  97.4311  97.1559 0000478  45.2664 314.8616 15.31570588131763,2020-061AF,46301,6849.263,94.021,471.455,470.8,1,2023/2/17
GENERATED VIA SPACETRACK.ORG API,18 SPCS,46301,SPACEBEE-20,PAYLOAD,U,20061AF,2023/1/22 3:51,896576,15.31647737,0.0000411,97.4309,97.6142,50.1347,309.9931,0,999,13183,0.0026936,0.0008305,0,3758130,0 SPACEBEE-20,1 46301U 20061AF  23022.16078584  .00083050  00000-0  26936-2 0  9995,2 46301  97.4309  97.6142 0000411  50.1347 309.9931 15.31647737131837,2020-061AF,46301,6849.033,94.016,471.179,470.616,1,2023/2/18
GENERATED VIA SPACETRACK.ORG API,18 SPCS,46301,SPACEBEE-20,PAYLOAD,U,20061AF,2023/1/22 17:58,328320,15.31727588,0.0000394,97.4301,98.204,32.0962,328.0303,0,999,13192,0.0023817,0.00073514,0,3758472,0 SPACEBEE-20,1 46301U 20061AF  23022.74875380  .00073514  00000-0  23817-2 0  9997,2 46301  97.4301  98.2040 0000394  32.0962 328.0303 15.31727588131923,2020-061AF,46301,6848.795,94.011,470.93,470.39,1,2023/2/19
GENERATED VIA SPACETRACK.ORG API,18 SPCS,46301,SPACEBEE-20,PAYLOAD,U,20061AF,2023/1/23 11:12,518496,15.31840735,0.0000484,97.4297,98.9246,42.1925,317.9353,0,999,13203,0.0024664,0.00076429,0,3759081,0 SPACEBEE-20,1 46301U 20061AF  23023.46733239  .00076429  00000-0  24664-2 0  9992,2 46301  97.4297  98.9246 0000484  42.1925 317.9353 15.31840735132038,2020-061AF,46301,6848.458,94.005,470.654,469.991,1,2023/2/20
GENERATED VIA SPACETRACK.ORG API,18 SPCS,46301,SPACEBEE-20,PAYLOAD,U,20061AF,2023/1/24 18:34,201856,15.3203994,0.0000516,97.4283,100.2331,4.7202,355.4045,0,999,13223,0.0023162,0.00072175,0,3760135,0 SPACEBEE-20,1 46301U 20061AF  23024.77370604  .00072175  00000-0  23162-2 0  9996,2 46301  97.4283 100.2331 0000516   4.7202 355.4045 15.32039940132239,2020-061AF,46301,6847.864,93.992,470.082,469.375,1,2023/2/21
GENERATED VIA SPACETRACK.ORG API,18 SPCS,46301,SPACEBEE-20,PAYLOAD,U,20061AF,2023/1/25 3:58,779008,15.3209326,0.0000459,97.4283,100.6258,2.8809,357.2435,0,999,13229,0.0024604,0.00076849,0,3761297,0 SPACEBEE-20,1 46301U 20061AF  23025.16558772  .00076849  00000-0  24604-2 0  9998,2 46301  97.4283 100.6258 0000459   2.8809 357.2435 15.32093260132293,2020-061AF,46301,6847.705,93.989,469.884,469.256,1,2023/2/22
GENERATED VIA SPACETRACK.ORG API,18 SPCS,46301,SPACEBEE-20,PAYLOAD,U,20061AF,2023/1/25 18:04,418208,15.32170826,0.0000537,97.4281,101.2159,0.906,359.2183,0,999,13238,0.0022546,0.00070525,0,3761281,0 SPACEBEE-20,1 46301U 20061AF  23025.75338447  .00070525  00000-0  22546-2 0  9996,2 46301  97.4281 101.2159 0000537   0.9060 359.2183 15.32170826132389,2020-061AF,46301,6847.474,93.984,469.707,468.971,1,2023/2/23
GENERATED VIA SPACETRACK.ORG API,18 SPCS,46301,SPACEBEE-20,PAYLOAD,U,20061AF,2023/1/25 18:04,418208,15.32170826,0.0000537,97.4281,101.2159,0.906,359.2183,0,999,13238,0.0022546,0.00070525,0,3761360,0 SPACEBEE-20,1 46301U 20061AF  23025.75338447  .00070525  00000-0  22546-2 0  9996,2 46301  97.4281 101.2159 0000537   0.9060 359.2183 15.32170826132389,2020-061AF,46301,6847.474,93.984,469.707,468.971,1,2023/2/24
GENERATED VIA SPACETRACK.ORG API,18 SPCS,46301,SPACEBEE-20,PAYLOAD,U,20061AF,2023/1/26 3:29,30112,15.32227175,0.0000445,97.428,101.6087,4.8193,355.3053,0,999,13244,0.0023463,0.00073555,0,3761951,0 SPACEBEE-20,1 46301U 20061AF  23026.14523183  .00073555  00000-0  23463-2 0  9998,2 46301  97.4280 101.6087 0000445   4.8193 355.3053 15.32227175132440,2020-061AF,46301,6847.306,93.981,469.476,468.866,1,2023/2/25
GENERATED VIA SPACETRACK.ORG API,18 SPCS,46301,SPACEBEE-20,PAYLOAD,U,20061AF,2023/1/26 22:17,733984,15.32332158,0.0000554,97.4285,102.3953,3.4752,356.6494,0,999,13256,0.0022842,0.00071825,0,3762241,0 SPACEBEE-20,1 46301U 20061AF  23026.92888581  .00071825  00000-0  22842-2 0  9998,2 46301  97.4285 102.3953 0000554   3.4752 356.6494 15.32332158132566,2020-061AF,46301,6846.993,93.974,469.238,468.479,1,2023/2/26
GENERATED VIA SPACETRACK.ORG API,18 SPCS,46301,SPACEBEE-20,PAYLOAD,U,20061AF,2023/1/27 10:49,659040,15.32392515,0.0000544,97.4284,102.9199,1.7995,358.3249,0,999,13264,0.0018246,0.00057355,0,3762827,0 SPACEBEE-20,1 46301U 20061AF  23027.45129235  .00057355  00000-0  18246-2 0  9996,2 46301  97.4284 102.9199 0000544   1.7995 358.3249 15.32392515132641,2020-061AF,46301,6846.813,93.971,469.051,468.306,1,2023/2/27
GENERATED VIA SPACETRACK.ORG API,18 SPCS,46301,SPACEBEE-20,PAYLOAD,U,20061AF,2023/1/27 10:49,659040,15.32392515,0.0000544,97.4284,102.9199,1.7995,358.3249,0,999,13264,0.0018246,0.00057355,0,3762956,0 SPACEBEE-20,1 46301U 20061AF  23027.45129235  .00057355  00000-0  18246-2 0  9996,2 46301  97.4284 102.9199 0000544   1.7995 358.3249 15.32392515132641,2020-061AF,46301,6846.813,93.971,469.051,468.306,1,2023/2/28
GENERATED VIA SPACETRACK.ORG API,18 SPCS,46301,SPACEBEE-20,PAYLOAD,U,20061AF,2023/1/27 18:40,851232,15.32424492,0.0000561,97.4283,103.2474,354.051,6.0725,0,999,13269,0.0018195,0.00057251,0,3763218,0 SPACEBEE-20,1 46301U 20061AF  23027.77778763  .00057251  00000-0  18195-2 0  9995,2 46301  97.4283 103.2474 0000561 354.0510   6.0725 15.32424492132697,2020-061AF,46301,6846.718,93.969,468.967,468.199,1,2023/3/1
GENERATED VIA SPACETRACK.ORG API,18 SPCS,46301,SPACEBEE-20,PAYLOAD,U,20061AF,2023/1/28 4:04,592256,15.32484006,0.0000512,97.4284,103.6404,348.94,11.183,0,999,13275,0.0020079,0.00063356,0,3763847,0 SPACEBEE-20,1 46301U 20061AF  23028.16956704  .00063356  00000-0  20079-2 0  9999,2 46301  97.4284 103.6404 0000512 348.9400  11.1830 15.32484006132759,2020-061AF,46301,6846.541,93.965,468.756,468.055,1,2023/3/2
GENERATED VIA SPACETRACK.ORG API,18 SPCS,46301,SPACEBEE-20,PAYLOAD,U,20061AF,2023/1/28 4:04,592256,15.32484006,0.0000512,97.4284,103.6404,348.94,11.183,0,999,13275,0.0020079,0.00063356,0,3763924,0 SPACEBEE-20,1 46301U 20061AF  23028.16956704  .00063356  00000-0  20079-2 0  9999,2 46301  97.4284 103.6404 0000512 348.9400  11.1830 15.32484006132759,2020-061AF,46301,6846.541,93.965,468.756,468.055,1,2023/3/3
GENERATED VIA SPACETRACK.ORG API,18 SPCS,46301,SPACEBEE-20,PAYLOAD,U,20061AF,2023/1/28 18:10,559168,15.32545162,0.0000607,97.4283,104.2303,349.333,10.7899,0,999,13284,0.0016241,0.00051247,0,3764061,0 SPACEBEE-20,1 46301U 20061AF  23028.75721712  .00051247  00000-0  16241-2 0  9995,2 46301  97.4283 104.2303 0000607 349.3330  10.7899 15.32545162132846,2020-061AF,46301,6846.359,93.961,468.639,467.808,1,2023/3/4
GENERATED VIA SPACETRACK.ORG API,18 SPCS,46301,SPACEBEE-20,PAYLOAD,U,20061AF,2023/1/28 18:10,559168,15.32545162,0.0000607,97.4283,104.2303,349.333,10.7899,0,999,13284,0.0016241,0.00051247,0,3764201,0 SPACEBEE-20,1 46301U 20061AF  23028.75721712  .00051247  00000-0  16241-2 0  9995,2 46301  97.4283 104.2303 0000607 349.3330  10.7899 15.32545162132846,2020-061AF,46301,6846.359,93.961,468.639,467.808,1,2023/3/5
GENERATED VIA SPACETRACK.ORG API,18 SPCS,46301,SPACEBEE-20,PAYLOAD,U,20061AF,2023/1/29 22:22,54464,15.32668223,0.0000479,97.4288,105.4103,341.9036,18.2189,0,999,13302,0.001491,0.00047196,0,3765015,0 SPACEBEE-20,1 46301U 20061AF  23029.93244276  .00047196  00000-0  14910-2 0  9990,2 46301  97.4288 105.4103 0000479 341.9036  18.2189 15.32668223133020,2020-061AF,46301,6845.992,93.954,468.185,467.529,1,2023/3/6
GENERATED VIA SPACETRACK.ORG API,18 SPCS,46301,SPACEBEE-20,PAYLOAD,U,20061AF,2023/1/30 4:38,372128,15.32694473,0.0000439,97.4288,105.6725,343.107,17.0157,0,999,13306,0.0013639,0.00043179,0,3765263,0 SPACEBEE-20,1 46301U 20061AF  23030.19359227  .00043179  00000-0  13639-2 0  9997,2 46301  97.4288 105.6725 0000439 343.1070  17.0157 15.32694473133062,2020-061AF,46301,6845.914,93.952,468.08,467.479,1,2023/3/7
GENERATED VIA SPACETRACK.ORG API,18 SPCS,46301,SPACEBEE-20,PAYLOAD,U,20061AF,2023/1/30 4:38,372128,15.32694473,0.0000439,97.4288,105.6725,343.107,17.0157,0,999,13306,0.0013639,0.00043179,0,3765576,0 SPACEBEE-20,1 46301U 20061AF  23030.19359227  .00043179  00000-0  13639-2 0  9997,2 46301  97.4288 105.6725 0000439 343.1070  17.0157 15.32694473133062,2020-061AF,46301,6845.914,93.952,468.08,467.479,1,2023/3/8
GENERATED VIA SPACETRACK.ORG API,18 SPCS,46301,SPACEBEE-20,PAYLOAD,U,20061AF,2023/1/30 10:54,272480,15.32715756,0.0000495,97.4286,105.9349,345.2733,14.8495,0,999,13310,0.0013372,0.00042356,0,3765849,0 SPACEBEE-20,1 46301U 20061AF  23030.45473695  .00042356  00000-0  13372-2 0  9992,2 46301  97.4286 105.9349 0000495 345.2733  14.8495 15.32715756133109,2020-061AF,46301,6845.851,93.951,468.055,467.377,1,2023/3/9
GENERATED VIA SPACETRACK.ORG API,18 SPCS,46301,SPACEBEE-20,PAYLOAD,U,20061AF,2023/1/31 10:24,119616,15.32809123,0.0000523,97.4285,106.9179,339.1198,21.0022,0,999,13325,0.0016325,0.00051944,0,3766368,0 SPACEBEE-20,1 46301U 20061AF  23031.43399444  .00051944  00000-0  16325-2 0  9994,2 46301  97.4285 106.9179 0000523 339.1198  21.0022 15.32809123133253,2020-061AF,46301,6845.573,93.945,467.796,467.08,1,2023/3/10
